NORAD_CAT_ID,OBJECT_NAME,OBJECT_TYPE,EPOCH,MEAN_MOTION,ECCENTRICITY,INCLINATION,RA_OF_ASC_NODE,ARG_OF_PERICENTER,MEAN_ANOMALY,BSTAR,MEAN_MOTION_DOT,MEAN_MOTION_DDOT,TLE_LINE0,TLE_LINE1,TLE_LINE2,SEMIMAJOR_AXIS,PERIOD,APOGEE,PERIGEE,DECAYED
52366.0,STARLINK-3808,PAYLOAD,2022-07-27 06:00:02,15.30816209,0.0001452,53.2173,2.0712,57.4794,90.2517,-0.038429,-0.01064231,0.0,0 STARLINK-3808,1 52366U 22045AM  22208.25002315 -.01064231  00000-0 -38429-1 0  9993,2 52366  53.2173   2.0712 0001452  57.4794  90.2517 15.30816209 16416,6851.513000000001,94.067,474.37300000000016,472.383,0.0
52366.0,STARLINK-3808,PAYLOAD,2022-07-27 14:00:01,15.30056866,0.0001758,53.2175,0.5236,45.0465,140.1603,-0.039351,-0.01064309,0.0,0 STARLINK-3808,1 52366U 22045AM  22208.58334491 -.01064309  00000-0 -39351-1 0  9993,2 52366  53.2175   0.5236 0001758  45.0465 140.1603 15.30056866  1307,6853.779,94.114,476.849,474.44,0.0
52366.0,STARLINK-3808,PAYLOAD,2022-07-27 22:00:00,15.29297062,0.0001373,53.2172,358.9779,70.2951,151.5387,-0.04024,-0.01063001,0.0,0 STARLINK-3808,1 52366U 22045AM  22208.91667824 -.01063001  00000-0 -40240-1 0  9996,2 52366  53.2172 358.9779 0001373  70.2951 151.5387 15.29297062  1307,6856.049,94.161,478.856,476.973,0.0
52366.0,STARLINK-3808,PAYLOAD,2022-07-28 08:00:01,15.2834679,0.0001281,53.2172,357.045,57.8697,298.467,-0.041428,-0.01062727,0.0,0 STARLINK-3808,1 52366U 22045AM  22209.33334491 -.01062727  00000-0 -41428-1 0  9997,2 52366  53.2172 357.0450 0001281  57.8697 298.4670 15.28346790 16583,6858.891,94.219,481.635,479.877,0.0
52366.0,STARLINK-3808,PAYLOAD,2022-07-28 14:00:01,15.2777863,0.0001579,53.2175,355.8892,46.2932,246.0579,-0.042211,-0.0106401,0.0,0 STARLINK-3808,1 52366U 22045AM  22209.58334491 -.01064010  00000-0 -42211-1 0  9992,2 52366  53.2175 355.8892 0001579  46.2932 246.0579 15.27778630  1308,6860.590999999999,94.254,483.54,481.37300000000016,0.0
52366.0,STARLINK-3808,PAYLOAD,2022-07-28 22:00:00,15.27020291,0.0001257,53.2172,354.3485,62.0825,264.1572,-0.043257,-0.0106517,0.0,0 STARLINK-3808,1 52366U 22045AM  22209.91667824 -.01065170  00000-0 -43257-1 0  9997,2 52366  53.2172 354.3485 0001257  62.0825 264.1572 15.27020291  1304,6862.863,94.301,485.59,483.865,0.0
52366.0,STARLINK-3808,PAYLOAD,2022-07-29 06:00:00,15.26257836,0.0001338,53.2173,352.8072,50.4872,308.7321,-0.0441089999999999,-0.01061536,0.0,0 STARLINK-3808,1 52366U 22045AM  22210.25001157 -.01061536  00000-0 -44109-1 0  9996,2 52366  53.2173 352.8072 0001338  50.4872 308.7321 15.26257836 16728,6865.148,94.348,487.932,486.094,0.0
52366.0,STARLINK-3808,PAYLOAD,2022-07-29 14:00:01,15.25501101,0.0001488,53.2175,351.2708,46.4324,344.8492,-0.045322,-0.01065632,0.0,0 STARLINK-3808,1 52366U 22045AM  22210.58334491 -.01065632  00000-0 -45322-1 0  9991,2 52366  53.2175 351.2708 0001488  46.4324 344.8492 15.25501101  1306,6867.418000000002,94.395,490.305,488.261,0.0
52366.0,STARLINK-3808,PAYLOAD,2022-07-29 22:00:00,15.24740882,0.0001354,53.2172,349.7353,54.9935,7.4395,-0.046276,-0.0106352,0.0,0 STARLINK-3808,1 52366U 22045AM  22210.91667824 -.01063520  00000-0 -46276-1 0  9990,2 52366  53.2172 349.7353 0001354  54.9935   7.4395 15.24740882  1309,6869.701,94.442,492.496,490.635,0.0
52366.0,STARLINK-3808,PAYLOAD,2022-07-30 06:00:00,15.23980502,0.0001449,53.2173,348.1994,52.51,40.1638,-0.047346,-0.01063531,0.0,0 STARLINK-3808,1 52366U 22045AM  22211.25001157 -.01063531  00000-0 -47346-1 0  9990,2 52366  53.2173 348.1994 0001449  52.5100  40.1638 15.23980502 16873,6871.985,94.489,494.846,492.855,0.0
52366.0,STARLINK-3808,PAYLOAD,2022-07-30 14:00:01,15.23221116,0.0001692,53.2174,346.6684,46.0606,75.9384,-0.048428,-0.01063445,0.0,0 STARLINK-3808,1 52366U 22045AM  22211.58334491 -.01063445  00000-0 -48428-1 0  9992,2 52366  53.2174 346.6684 0001692  46.0606  75.9384 15.23221116  1307,6874.269,94.537,497.297,494.971,0.0
52366.0,STARLINK-3808,PAYLOAD,2022-07-30 22:00:00,15.22461921,0.0001564999999999,53.2172,345.1381,53.333,97.0792,-0.049516,-0.01063021,0.0,0 STARLINK-3808,1 52366U 22045AM  22211.91667824 -.01063021  00000-0 -49516-1 0  9997,2 52366  53.2172 345.1381 0001565  53.3330  97.0792 15.22461921  1304,6876.554,94.584,499.496,497.343,0.0
52366.0,STARLINK-3808,PAYLOAD,2022-07-31 06:00:02,15.21702785,0.0001595,53.2172,343.6076,53.8221,124.1555,-0.050731,-0.01064701,0.0,0 STARLINK-3808,1 52366U 22045AM  22212.25002315 -.01064701  00000-0 -50731-1 0  9990,2 52366  53.2172 343.6076 0001595  53.8221 124.1555 15.21702785 17025,6878.840999999999,94.631,501.80300000000005,499.609,0.0
52366.0,STARLINK-3808,PAYLOAD,2022-07-31 14:00:01,15.20940961,0.0001754999999999,53.2175,342.0821,47.7321,156.7702,-0.051657,-0.01060429,0.0,0 STARLINK-3808,1 52366U 22045AM  22212.58334491 -.01060429  00000-0 -51657-1 0  9990,2 52366  53.2175 342.0821 0001755  47.7321 156.7702 15.20940961  1308,6881.138000000001,94.678,504.211,501.795,0.0
52366.0,STARLINK-3808,PAYLOAD,2022-07-31 22:00:00,15.20184712,0.00015,53.2172,340.5569,59.354,170.8226,-0.053089,-0.01065352,0.0,0 STARLINK-3808,1 52366U 22045AM  22212.91667824 -.01065352  00000-0 -53089-1 0  9997,2 52366  53.2172 340.5569 0001500  59.3540 170.8226 15.20184712  1309,6883.42,94.725,506.317,504.252,0.0
52366.0,STARLINK-3808,PAYLOAD,2022-08-01 06:00:00,15.19423053,0.0001536,53.2173,339.0317,54.0808,200.8606,-0.054123,-0.01062419,0.0,0 STARLINK-3808,1 52366U 22045AM  22213.25001157 -.01062419  00000-0 -54123-1 0  9997,2 52366  53.2173 339.0317 0001536  54.0808 200.8606 15.19423053 17172,6885.72,94.773,508.643,506.527,0.0
52366.0,STARLINK-3808,PAYLOAD,2022-08-01 14:00:01,15.18662706,0.0001692,53.2174,337.5118,45.2693,233.5214,-0.055215,-0.01060315,0.0,0 STARLINK-3808,1 52366U 22045AM  22213.58334491 -.01060315  00000-0 -55215-1 0  9999,2 52366  53.2174 337.5118 0001692  45.2693 233.5214 15.18662706  1307,6888.018,94.82,511.049,508.718,0.0
52366.0,STARLINK-3808,PAYLOAD,2022-08-01 22:00:00,15.1790704,0.0001344,53.2172,335.9917,62.0948,239.6323,-0.0568139999999999,-0.01080276,0.0,0 STARLINK-3808,1 52366U 22045AM  22213.91667824 -.01080276  00000-0 -56814-1 0  9999,2 52366  53.2172 335.9917 0001344  62.0948 239.6323 15.17907040  1308,6890.304,94.867,513.095,511.24300000000005,0.0
52366.0,STARLINK-3808,PAYLOAD,2022-08-02 06:00:02,15.17142927,0.0001526,53.2173,334.472,46.2219,277.596,-0.057663,-0.01073081,0.0,0 STARLINK-3808,1 52366U 22045AM  22214.25002315 -.01073081  00000-0 -57663-1 0  9994,2 52366  53.2173 334.4720 0001526  46.2219 277.5960 15.17142927 17335,6892.6169999999975,94.915,515.534,513.431,0.0
52366.0,STARLINK-3808,PAYLOAD,2022-08-02 14:00:01,15.16385475,0.0001669,53.2173,332.9573,40.9923,303.8727,-0.059082,-0.01075629,0.0,0 STARLINK-3808,1 52366U 22045AM  22214.58334491 -.01075629  00000-0 -59082-1 0  9990,2 52366  53.2173 332.9573 0001669  40.9923 303.8727 15.16385475  1305,6894.913000000001,94.963,517.928,515.627,0.0
52366.0,STARLINK-3808,PAYLOAD,2022-08-03 06:00:00,15.14864179,0.0001505,53.2172,329.9281,46.885,337.4686,-0.061513,-0.0107247,0.0,0 STARLINK-3808,1 52366U 22045AM  22215.25001157 -.01072470  00000-0 -61513-1 0  9998,2 52366  53.2172 329.9281 0001505  46.8850 337.4686 15.14864179 17483,6899.528,95.058,522.431,520.355,0.0
52366.0,STARLINK-3808,PAYLOAD,2022-08-03 14:00:01,15.14107823,0.0001808,53.2173,328.4188,37.448,5.2775,-0.063138,-0.01077107,0.0,0 STARLINK-3808,1 52366U 22045AM  22215.58334491 -.01077107  00000-0 -63138-1 0  9991,2 52366  53.2173 328.4188 0001808  37.4480   5.2775 15.14107823  1304,6901.825,95.106,524.938,522.443,0.0
52366.0,STARLINK-3808,PAYLOAD,2022-08-03 22:00:01,15.13347945,0.0001535,53.2173,326.9091,47.5431,12.7076,-0.064478,-0.01076579,0.0,0 STARLINK-3808,1 52366U 22045AM  22215.91668981 -.01076579  00000-0 -64478-1 0  9992,2 52366  53.2173 326.9091 0001535  47.5431  12.7076 15.13347945  1302,6904.136,95.153,527.06,524.941,0.0
52366.0,STARLINK-3808,PAYLOAD,2022-08-04 06:00:00,15.12586319,0.0001644,53.2173,325.4001,45.5316,31.2065,-0.0656549999999999,-0.01073253,0.0,0 STARLINK-3808,1 52366U 22045AM  22216.25001157 -.01073253  00000-0 -65655-1 0  9990,2 52366  53.2173 325.4001 0001644  45.5316  31.2065 15.12586319 17634,6906.453,95.201,529.453,527.183,0.0
52366.0,STARLINK-3808,PAYLOAD,2022-08-04 14:00:01,15.11829191,0.0001869,53.2173,323.8962,39.9205,52.4519,-0.067312,-0.01076975,0.0,0 STARLINK-3808,1 52366U 22045AM  22216.58334491 -.01076975  00000-0 -67312-1 0  9992,2 52366  53.2173 323.8962 0001869  39.9205  52.4519 15.11829191  1308,6908.759,95.249,531.915,529.332,0.0
52366.0,STARLINK-3808,PAYLOAD,2022-08-04 22:00:00,15.11068306,0.0001730999999999,53.2172,322.3917,43.8023,63.2948,-0.068591,-0.01074534,0.0,0 STARLINK-3808,1 52366U 22045AM  22216.91667824 -.01074534  00000-0 -68591-1 0  9997,2 52366  53.2172 322.3917 0001731  43.8023  63.2948 15.11068306  1300,6911.078,95.297,534.139,531.746,0.0
52366.0,STARLINK-3808,PAYLOAD,2022-08-05 06:00:02,15.10310261,0.0001899999999999,53.2174,320.8881,42.1203,78.8509,-0.0703,-0.01078083,0.0,0 STARLINK-3808,1 52366U 22045AM  22217.25002315 -.01078083  00000-0 -70300-1 0  9997,2 52366  53.2174 320.8881 0001900  42.1203  78.8509 15.10310261 17788,6913.39,95.345,536.569,533.941,0.0
52366.0,STARLINK-3808,PAYLOAD,2022-08-05 14:00:01,15.09424118,0.0002092,53.2173,319.3902,38.8106,95.0764,-0.042483,-0.00644449,0.0,0 STARLINK-3808,1 52366U 22045AM  22217.58335648 -.00644449  00000-0 -42483-1 0  9996,2 52366  53.2173 319.3902 0002092  38.8106  95.0764 15.09424118 17836,6916.096,95.401,539.4069999999998,536.514,0.0
52366.0,STARLINK-3808,PAYLOAD,2022-08-05 21:22:23,15.10869765,0.0001424,53.215,318.0309,105.4192,254.6959,-0.019142,-0.00308927,0.0,0 STARLINK-3808,1 52366U 22045AM  22217.89054933 -.00308927  00000-0 -19142-1 0  9999,2 52366  53.2150 318.0309 0001424 105.4192 254.6959 15.10869765 17889,6911.683000000001,95.309,534.5319999999998,532.564,0.0
